{"type": "FeatureCollection", "features": [{"type": "Feature", "properties": {"name": "Rawalpindi District", "name_ur": "راولپنڈی", "admin_level": 6, "country": "Pakistan"}, "geometry": {"type": "Polygon", "coordinates": [[[73.47305358725333, 34.062150424902256], [73.4362269520123, 34.04604740536354], [73.40319815467114, 34.034844332999626], [73.3736043538579, 34.0255012268002], [73.35528438046981, 34.01148463710638], [73.34823823720495, 33.99571320749857], [73.33837363663406, 33.989871195299486], [73.3256492926808, 33.969441530202516], [73.31532779334304, 33.96373468071101], [73.30156579452586, 33.9494658806459], [73.29468479556692, 33.932340161968966], [73.27404179689148, 33.91663856112075], [73.2706012983113, 33.90236186770608], [73.26027979897361, 33.88665474232255], [73.24307730067693, 33.8823704791144], [73.21727355323196, 33.87808600096821], [73.20007105403596, 33.873801306984774], [73.18901258720939, 33.86053772272507], [73.18458880592868, 33.85523181579572], [73.17942805625984, 33.836658286650675], [73.16050530867312, 33.81808071954964], [73.14854294679964, 33.810981539666386], [73.15452566422806, 33.80004493552542], [73.16174091511118, 33.792175141869336], [73.17526951107914, 33.784679426614275], [73.19556240368206, 33.77718305575348], [73.20548337375874, 33.77156034683259], [73.21089481124659, 33.764812608515115], [73.21856101457922, 33.759189088405776], [73.22712912550878, 33.75543986965431], [73.23524628219025, 33.74719101175583], [73.24201058062386, 33.73481623608046], [73.25148059645244, 33.73256608555647], [73.26996967745873, 33.72544021829151], [73.28169445913204, 33.71231207154494], [73.28981161671283, 33.702933595009426], [73.29522305420062, 33.68604975619132], [73.29432114840233, 33.67516730382806], [73.28665494417038, 33.66578477224948], [73.27538111494653, 33.66165613492274], [73.25148059645244, 33.65640121814175], [73.24246153307337, 33.65339826491805], [73.23569723553902, 33.631999189111355], [73.2334424696943, 33.607590243395066], [73.23299151634546, 33.58880942771299], [73.23163865719835, 33.57566042388953], [73.224874359664, 33.56777006004029], [73.2136005304402, 33.559878974035485], [73.20593432710757, 33.550108060338744], [73.19962098202274, 33.54033604047595], [73.19015096529489, 33.531314734187674], [73.17977904276864, 33.52304437709637], [73.16985807179265, 33.51627713248371], [73.15497661757689, 33.50048483680581], [73.14595755419782, 33.49371582772335], [73.13197800578041, 33.49108329265988], [73.11033225403037, 33.49108329265988], [73.0954507989153, 33.49409189812263], [73.07696171880832, 33.500108795184815], [73.06568788958447, 33.50574925582356], [73.06388407708852, 33.515149207270156], [73.06794265542925, 33.524548137986244], [73.07515790541305, 33.531690640910426], [73.07966743800193, 33.5384566795322], [73.08192220384666, 33.55085970830896], [73.07786362460666, 33.570775997214525], [73.0661388429333, 33.58167164622955], [73.05757073200374, 33.601205225041156], [73.0431402302375, 33.61209703035371], [73.03637593360253, 33.62261195138052], [73.0264549635258, 33.63612924916555], [73.01602892609412, 33.64267206076704], [73.01117479937756, 33.64519085227607], [73.01113847935738, 33.645209698468875], [72.99533919414853, 33.642511680169946], [72.98406536582405, 33.63763103964084], [72.96986034028254, 33.63568339946937], [72.95647266807924, 33.63333678676332], [72.94801729616137, 33.62981674764484], [72.93533423828455, 33.61984252061586], [72.91983272220244, 33.61632193021296], [72.90433120701965, 33.613387993661036], [72.89376199212228, 33.60575929385635], [72.88812507751038, 33.598129918660845], [72.8796697055925, 33.58756505378426], [72.86416819040971, 33.58052109227464], [72.84655283224748, 33.57758593893999], [72.83739284600307, 33.58697807887529], [72.83246054481833, 33.59636919808008], [72.82189133082034, 33.60223812698803], [72.8070944290647, 33.61632193021296], [72.80286674310577, 33.62746997396016], [72.79652521416733, 33.634510100760565], [72.7866606135965, 33.64154965289424], [72.78172831331108, 33.65855952630113], [72.78313754196404, 33.67673877737275], [72.78806984224946, 33.68670641237111], [72.80638981473822, 33.70019019692012], [72.82611901587995, 33.70722437470516], [72.84091591673621, 33.71015511236857], [72.86557741906267, 33.719532800198635], [72.87614663396005, 33.7265653942776], [72.88526533412795, 33.7322858199347], [72.86290208616242, 33.73800815215458], [72.85086033753458, 33.75231231356247], [72.83537808852805, 33.768044136128026], [72.83021733975846, 33.7894919668808], [72.83021733975846, 33.80304674481147], [72.80664716563422, 33.800910093226264], [72.79196458659646, 33.79421903468074], [72.78675463861572, 33.784771943470446], [72.77349295423653, 33.78255763093], [72.75351162186394, 33.778251859535715], [72.74315093097073, 33.7739458705056], [72.7253897459401, 33.7739458705056], [72.70836861122251, 33.778251859535715], [72.6943076732606, 33.789938450599095], [72.68912732826362, 33.794858644211104], [72.680246736198, 33.804083243147204], [72.67284624206047, 33.803468301121256], [72.66544574882232, 33.789323406949734], [72.66026540292609, 33.78009721711294], [72.6543450085154, 33.77517617544021], [72.63880397172596, 33.772100380728034], [72.6351037264559, 33.76348756899614], [72.63288357731528, 33.75671975331403], [72.63140347938713, 33.74995140163594], [72.62992337966028, 33.73641309838581], [72.64324426820849, 33.719794986749264], [72.6639656499948, 33.70563627899111], [72.66988604440547, 33.69701679339033], [72.67950668678424, 33.68839644174244], [72.69356762474615, 33.68162270222598], [72.70688851239498, 33.66622585374023], [72.71280890680566, 33.652674348442474], [72.70910866063622, 33.64158516532319], [72.69282757533239, 33.632343087163804], [72.69282757533239, 33.62371625410191], [72.6943076732606, 33.61077438393073], [72.69652782240115, 33.59844698633941], [72.7009681179843, 33.589200282067395], [72.71132880887751, 33.58735082268237], [72.72760989508066, 33.58550132282784], [72.74389097948517, 33.58365178340313], [72.75943201627462, 33.58118566968295], [72.77127280689456, 33.57255371678065], [72.77349295423653, 33.550970056922665], [72.77645315189153, 33.53308236695773], [72.77867329923345, 33.51765897408245], [72.78755389129913, 33.512105878083844], [72.7949543854366, 33.51025476754353], [72.80531507632975, 33.502232829281695], [72.80753522457104, 33.492358655427665], [72.81715586605043, 33.486803936152796], [72.82825660635734, 33.47631071846496], [72.82751655604426, 33.46025980924287], [72.82455635928858, 33.446675949035864], [72.81345561898166, 33.43926567477115], [72.7979145830916, 33.43679544215598], [72.77497305216468, 33.43308996193224], [72.75721186803332, 33.43185476648432], [72.74315093097073, 33.41703105234126], [72.74093078272949, 33.407147169406414], [72.73279024007758, 33.39417286788358], [72.71650915387443, 33.38675811049848], [72.71132880887751, 33.37192669995727], [72.70688851239498, 33.35462019056939], [72.6950477226743, 33.34349276018281], [72.68320693385294, 33.34287452753745], [72.66840594647732, 33.34287452753745], [72.6543450085154, 33.33545539764856], [72.6528649105872, 33.31010193625542], [72.6513848108604, 33.29835027114814], [72.64176416938096, 33.28597838499451], [72.63140347938713, 33.27546090359789], [72.63140347938713, 33.26308577448896], [72.64102412086652, 33.25442214026958], [72.64324426820849, 33.240806121205594], [72.63214352790158, 33.23028319980989], [72.6240029852496, 33.21913990268439], [72.61142214611522, 33.21480601578503], [72.5958811102251, 33.20366074734568], [72.5929209125701, 33.19189475783685], [72.5929209125701, 33.18260470174562], [72.581985168181, 33.17230753176722], [72.59810125756707, 33.16711908657663], [72.61512239318398, 33.16711908657663], [72.6269631829046, 33.15348948235379], [72.6499047129322, 33.145434628905036], [72.65804525558411, 33.129942448685085], [72.67062609471856, 33.121885435064826], [72.69282757533239, 33.12312502280162], [72.71724920328813, 33.12250523073186], [72.73649048714634, 33.12250523073186], [72.75721186803332, 33.121885435064826], [72.769052657754, 33.11072834773512], [72.77349295423653, 33.10390943077567], [72.80235487957407, 33.10204963368369], [72.81345561898166, 33.10142969322584], [72.83491705018179, 33.10142969322584], [72.8519381857987, 33.0995698439732], [72.86747922258809, 33.096470008584106], [72.87561976434068, 33.08530969448685], [72.87783991258198, 33.08096918947655], [72.88006005992389, 33.06732620963692], [72.88746055406136, 33.05802296408859], [72.9030015908508, 33.053060831492246], [72.92150282439587, 33.05244054569471], [72.937043860286, 33.05057965952369], [72.95184484766162, 33.04747809743628], [72.96294558796859, 33.04065427557441], [72.96886598327859, 33.03010732968954], [72.98588711799613, 33.025764102431424], [73.00882864802372, 33.02204116636676], [73.0206694377444, 33.02204116636676], [73.02732988156885, 33.0356911645157], [73.03399032629255, 33.048098418307404], [73.04879131276891, 33.051820254501195], [73.06729254631404, 33.05119995881108], [73.0857937798591, 33.04685777206856], [73.10503506371725, 33.04003390164331], [73.11243555605614, 33.029486882014055], [73.1220126361303, 33.02637862323261], [73.13537708698306, 33.02204116636676], [73.15387832052812, 33.02700504634589], [73.16941935641825, 33.03755236455004], [73.17903999879695, 33.048098418307404], [73.19902133027023, 33.05057965952369], [73.2167825153009, 33.053060831492246], [73.22492305795282, 33.062984816995765], [73.2338036500185, 33.07352782564868], [73.24490439122474, 33.07476809776955], [73.26932601918048, 33.07538822618574], [73.28412700655616, 33.076008351004646], [73.30114814217308, 33.07910890765004], [73.30706853658376, 33.087789886194344], [73.31298893099444, 33.11754673499388], [73.31298893099444, 33.129322705178765], [73.32038942423259, 33.14233641139634], [73.32852996778382, 33.14605425909684], [73.34037075660518, 33.15163073566998], [73.34333095426018, 33.16588011937205], [73.35517174398086, 33.17021642904501], [73.37589312576722, 33.17021642904501], [73.39069411314284, 33.16773856388369], [73.39883465579476, 33.15163073566998], [73.41511574199797, 33.14915234530457], [73.43213687581624, 33.14915234530457], [73.44471771495063, 33.1528699043227], [73.45211820908816, 33.160304549315526], [73.46321894849575, 33.16897750500789], [73.4854204300089, 33.17083588386902], [73.50984205796465, 33.17083588386902], [73.53574378564724, 33.17021642904501], [73.55128482243668, 33.16959696972441], [73.56238556184428, 33.17269422315991], [73.58310694363058, 33.17641078393058], [73.5942076839375, 33.18198532965931], [73.60143078299045, 33.18742590412117], [73.59555786760154, 33.19280903201127], [73.58287481062405, 33.20342199083228], [73.57653328078635, 33.22287574042315], [73.57441943870617, 33.261770263287076], [73.57301020915389, 33.30948078980663], [73.56173637993004, 33.31478034983331], [73.5518717793592, 33.32243470010138], [73.5497579363797, 33.34480510037514], [73.54693947907373, 33.38658702886835], [73.55257639368568, 33.40423533369375], [73.56737329544131, 33.4136462973388], [73.57582866735919, 33.44069713736303], [73.57512405303265, 33.48713433987791], [73.58498865360355, 33.5206242079409], [73.58921633866316, 33.54822891163502], [73.58357942495059, 33.56701855865958], [73.57160098050093, 33.57934704263198], [73.55891792262406, 33.592260709164464], [73.5497579363797, 33.61984252061586], [73.55328100801216, 33.69843156276647], [73.55469023666512, 33.725393334834564], [73.5518717793592, 33.76113393078634], [73.54341640744133, 33.77050604821562], [73.54200717788899, 33.78749039616491], [73.54834870772675, 33.80037282834343], [73.55116716503272, 33.81208244744704], [73.55328100801216, 33.844860854644764], [73.55398562233864, 33.87645670011665], [73.54341640744133, 33.89049554443386], [73.531437963891, 33.90511688503625], [73.52086874899362, 33.92148980820815], [73.51170876274927, 33.93201359834893], [73.49902570397313, 33.94604329566164], [73.49338878936118, 33.974095752916696], [73.4849334174433, 33.9904554146857], [73.48211496013738, 34.01557304775798], [73.4736595882195, 34.05177609219294], [73.47305358725333, 34.062150424902256]]]}}]}